{"type": "FeatureCollection", "features": [ {"type": "Feature", "properties": {"norad_id": 66455, "name": "ATLAS 5 CENTAUR R/B", "group": "last-30-days", "lat": -5.454345631753687, "lon": 174.09436676560318, "alt_km": 14031.18371107196, "timestamp": "2025-12-11T07:02:22.476403+00:00", "meta": {"OBJECT_NAME": "ATLAS 5 CENTAUR R/B", "OBJECT_ID": "2025-261B", "EPOCH": "2025-12-10T19:10:51.172032", "MEAN_MOTION": 2.28259777, "ECCENTRICITY": 0.23294935, "INCLINATION": 6.1482, "RA_OF_ASC_NODE": 291.8106, "ARG_OF_PERICENTER": 186.0942, "MEAN_ANOMALY": 350.1221, "EPHEMERIS_TYPE": 0, "CLASSIFICATION_TYPE": "U", "NORAD_CAT_ID": 66455, "ELEMENT_SET_NO": 999, "REV_AT_EPOCH": 60, "BSTAR": 0, "MEAN_MOTION_DOT": -7.9e-07, "MEAN_MOTION_DDOT": 0}, "tle": {"line1": "1 66455U 25261B   25344.79920338 -.00000079  00000+0  00000+0 0  9996", "line2": "2 66455   6.1482 291.8106 2329493 186.0942 350.1221  2.28259777   607"}}, "geometry": {"type": "Point", "coordinates": [174.09436676560318, -5.454345631753687]}}, {"type": "Feature", "properties": {"norad_id": 66456, "name": "STARLINK-35643", "group": "last-30-days", "lat": 25.392548402911384, "lon": 110.56781562871375, "alt_km": 440.72552270350025, "timestamp": "2025-12-11T07:02:22.476415+00:00", "meta": {"OBJECT_NAME": "STARLINK-35643", "OBJECT_ID": "2025-262A", "EPOCH": "2025-12-10T22:00:03.000096", "MEAN_MOTION": 15.40730587, "ECCENTRICITY": 0.00014247, "INCLINATION": 43, "RA_OF_ASC_NODE": 82.1155, "ARG_OF_PERICENTER": 268.6634, "MEAN_ANOMALY": 198.9853, "EPHEMERIS_TYPE": 0, "CLASSIFICATION_TYPE": "U", "NORAD_CAT_ID": 66456, "ELEMENT_SET_NO": 999, "REV_AT_EPOCH": 534, "BSTAR": -0.0020679125, "MEAN_MOTION_DOT": -0.00085808, "MEAN_MOTION_DDOT": 0}, "tle": {"line1": "1 66456U 25262A   25344.91670139 -.00085808  00000+0 -20679-2 0  9994", "line2": "2 66456  43.0000  82.1155 0001424 268.6634 198.9853 15.40730587  5349"}}, "geometry": {"type": "Point", "coordinates": [110.56781562871375, 25.392548402911384]}}, {"type": "Feature", "properties": {"norad_id": 66457, "name": "STARLINK-35466", "group": "last-30-days", "lat": 37.74384367657503, "lon": 136.05642719720868, "alt_km": 438.78000026013524, "timestamp": "2025-12-11T07:02:22.476426+00:00", "meta": {"OBJECT_NAME": "STARLINK-35466", "OBJECT_ID": "2025-262B", "EPOCH": "2025-12-10T22:00:03.000096", "MEAN_MOTION": 15.40729264, "ECCENTRICITY": 0.00012336, "INCLINATION": 43.0001, "RA_OF_ASC_NODE": 82.0546, "ARG_OF_PERICENTER": 282.91, "MEAN_ANOMALY": 209.6224, "EPHEMERIS_TYPE": 0, "CLASSIFICATION_TYPE": "U", "NORAD_CAT_ID": 66457, "ELEMENT_SET_NO": 999, "REV_AT_EPOCH": 534, "BSTAR": -0.0020940512, "MEAN_MOTION_DOT": -0.00086871, "MEAN_MOTION_DDOT": 0}, "tle": {"line1": "1 66457U 25262B   25344.91670139 -.00086871  00000+0 -20941-2 0  9998", "line2": "2 66457  43.0001  82.0546 0001233 282.9100 209.6224 15.40729264  5341"}}, "geometry": {"type": "Point", "coordinates": [136.05642719720868, 37.74384367657503]}}, {"type": "Feature", "properties": {"norad_id": 66458, "name": "STARLINK-35684", "group": "last-30-days", "lat": 32.18007152494997, "lon": 122.38853087272157, "alt_km": 439.43071118173975, "timestamp": "2025-12-11T07:02:22.476437+00:00", "meta": {"OBJECT_NAME": "STARLINK-35684", "OBJECT_ID": "2025-262C", "EPOCH": "2025-12-10T22:00:03.000096", "MEAN_MOTION": 15.40769001, "ECCENTRICITY": 0.00013236, "INCLINATION": 43.0001, "RA_OF_ASC_NODE": 82.0849, "ARG_OF_PERICENTER": 286.8329, "MEAN_ANOMALY": 193.1528, "EPHEMERIS_TYPE": 0, "CLASSIFICATION_TYPE": "U", "NORAD_CAT_ID": 66458, "ELEMENT_SET_NO": 999, "REV_AT_EPOCH": 534, "BSTAR": -0.0024257362, "MEAN_MOTION_DOT": -0.00100538, "MEAN_MOTION_DDOT": 0}, "tle": {"line1": "1 66458U 25262C   25344.91670139 -.00100538  00000+0 -24257-2 0  9990", "line2": "2 66458  43.0001  82.0849 0001323 286.8329 193.1528 15.40769001  5341"}}, "geometry": {"type": "Point", "coordinates": [122.38853087272157, 32.18007152494997]}}, {"type": "Feature", "properties": {"norad_id": 66459, "name": "STARLINK-35449", "group": "last-30-days", "lat": 41.48715840213234, "lon": 151.47412916231377, "alt_km": 438.5955257633159, "timestamp": "2025-12-11T07:02:22.476447+00:00", "meta": {"OBJECT_NAME": "STARLINK-35449", "OBJECT_ID": "2025-262D", "EPOCH": "2025-12-10T22:00:03.000096", "MEAN_MOTION": 15.40738515, "ECCENTRICITY": 0.00015335, "INCLINATION": 43.0001, "RA_OF_ASC_NODE": 82.0237, "ARG_OF_PERICENTER": 266.4658, "MEAN_ANOMALY": 238.5056, "EPHEMERIS_TYPE": 0, "CLASSIFICATION_TYPE": "U", "NORAD_CAT_ID": 66459, "ELEMENT_SET_NO": 999, "REV_AT_EPOCH": 534, "BSTAR": -0.0024250781, "MEAN_MOTION_DOT": -0.00100412, "MEAN_MOTION_DDOT": 0}, "tle": {"line1": "1 66459U 25262D   25344.91670139 -.00100412  00000+0 -24251-2 0  9996", "line2": "2 66459  43.0001  82.0237 0001533 266.4658 238.5056 15.40738515  5341"}}, "geometry": {"type": "Point", "coordinates": [151.47412916231377, 41.48715840213234]}}, {"type": "Feature", "properties": {"norad_id": 66460, "name": "STARLINK-35424", "group": "last-30-days", "lat": 42.967487836764455, "lon": 168.13207425471174, "alt_km": 438.31860483174023, "timestamp": "2025-12-11T07:02:22.476461+00:00", "meta": {"OBJECT_NAME": "STARLINK-35424", "OBJECT_ID": "2025-262E", "EPOCH": "2025-12-10T22:00:03.000096", "MEAN_MOTION": 15.40660023, "ECCENTRICITY": 0.000153, "INCLINATION": 43.0002, "RA_OF_ASC_NODE": 81.9934, "ARG_OF_PERICENTER": 269.0968, "MEAN_ANOMALY": 248.3263, "EPHEMERIS_TYPE": 0, "CLASSIFICATION_TYPE": "U", "NORAD_CAT_ID": 66460, "ELEMENT_SET_NO": 999, "REV_AT_EPOCH": 534, "BSTAR": 0.00065435945, "MEAN_MOTION_DOT": 0.00027091, "MEAN_MOTION_DDOT": 0}, "tle": {"line1": "1 66460U 25262E   25344.91670139  .00027091  00000+0  65436-3 0  9998", "line2": "2 66460  43.0002  81.9934 0001530 269.0968 248.3263 15.40660023  5343"}}, "geometry": {"type": "Point", "coordinates": [168.13207425471174, 42.967487836764455]}}, {"type": "Feature", "properties": {"norad_id": 66461, "name": "STARLINK-35132", "group": "last-30-days", "lat": 41.967749143656256, "lon": -175.0354778012625, "alt_km": 438.73287572976096, "timestamp": "2025-12-11T07:02:22.476480+00:00", "meta": {"OBJECT_NAME": "STARLINK-35132", "OBJECT_ID": "2025-262F", "EPOCH": "2025-12-10T22:00:03.000096", "MEAN_MOTION": 15.40661671, "ECCENTRICITY": 0.00019403, "INCLINATION": 43.0004, "RA_OF_ASC_NODE": 81.963, "ARG_OF_PERICENTER": 280.1956, "MEAN_ANOMALY": 249.6636, "EPHEMERIS_TYPE": 0, "CLASSIFICATION_TYPE": "U", "NORAD_CAT_ID": 66461, "ELEMENT_SET_NO": 999, "REV_AT_EPOCH": 534, "BSTAR": 0.0007912404, "MEAN_MOTION_DOT": 0.00032849, "MEAN_MOTION_DDOT": 0}, "tle": {"line1": "1 66461U 25262F   25344.91670139  .00032849  00000+0  79124-3 0  9995", "line2": "2 66461  43.0004  81.9630 0001940 280.1956 249.6636 15.40661671  5343"}}, "geometry": {"type": "Point", "coordinates": [-175.0354778012625, 41.967749143656256]}}, {"type": "Feature", "properties": {"norad_id": 66462, "name": "STARLINK-35499", "group": "last-30-days", "lat": 38.63593456324227, "lon": -159.30443791775113, "alt_km": 438.8158898686106, "timestamp": "2025-12-11T07:02:22.476491+00:00", "meta": {"OBJECT_NAME": "STARLINK-35499", "OBJECT_ID": "2025-262G", "EPOCH": "2025-12-10T22:00:03.000096", "MEAN_MOTION": 15.40663645, "ECCENTRICITY": 0.00013382, "INCLINATION": 43.0004, "RA_OF_ASC_NODE": 81.9321, "ARG_OF_PERICENTER": 277.2034, "MEAN_ANOMALY": 265.0963, "EPHEMERIS_TYPE": 0, "CLASSIFICATION_TYPE": "U", "NORAD_CAT_ID": 66462, "ELEMENT_SET_NO": 999, "REV_AT_EPOCH": 534, "BSTAR": 0.0006960692, "MEAN_MOTION_DOT": 0.00028848, "MEAN_MOTION_DDOT": 0}, "tle": {"line1": "1 66462U 25262G   25344.91670139  .00028848  00000+0  69607-3 0  9995", "line2": "2 66462  43.0004  81.9321 0001338 277.2034 265.0963 15.40663645  5344"}}, "geometry": {"type": "Point", "coordinates": [-159.30443791775113, 38.63593456324227]}}, {"type": "Feature", "properties": {"norad_id": 66463, "name": "STARLINK-35463", "group": "last-30-days", "lat": 26.811729260764288, "lon": -133.14254738251194, "alt_km": 440.6859580874707, "timestamp": "2025-12-11T07:02:22.476501+00:00", "meta": {"OBJECT_NAME": "STARLINK-35463", "OBJECT_ID": "2025-262H", "EPOCH": "2025-12-10T22:00:03.000096", "MEAN_MOTION": 15.40653173, "ECCENTRICITY": 0.00018153, "INCLINATION": 43.0008, "RA_OF_ASC_NODE": 81.871, "ARG_OF_PERICENTER": 268.3005, "MEAN_ANOMALY": 298.8968, "EPHEMERIS_TYPE": 0, "CLASSIFICATION_TYPE": "U", "NORAD_CAT_ID": 66463, "ELEMENT_SET_NO": 999, "REV_AT_EPOCH": 534, "BSTAR": 0.00074837952, "MEAN_MOTION_DOT": 0.00031037, "MEAN_MOTION_DDOT": 0}, "tle": {"line1": "1 66463U 25262H   25344.91670139  .00031037  00000+0  74838-3 0  9992", "line2": "2 66463  43.0008  81.8710 0001815 268.3005 298.8968 15.40653173  5343"}}, "geometry": {"type": "Point", "coordinates": [-133.14254738251194, 26.811729260764288]}}, {"type": "Feature", "properties": {"norad_id": 66464, "name": "STARLINK-35435", "group": "last-30-days", "lat": 33.40982195240089, "lon": -145.32893022624094, "alt_km": 440.1526145819489, "timestamp": "2025-12-11T07:02:22.476512+00:00", "meta": {"OBJECT_NAME": "STARLINK-35435", "OBJECT_ID": "2025-262J", "EPOCH": "2025-12-10T22:00:03.000096", "MEAN_MOTION": 15.4078332, "ECCENTRICITY": 0.00020217, "INCLINATION": 43.0006, "RA_OF_ASC_NODE": 81.902, "ARG_OF_PERICENTER": 287.4251, "MEAN_ANOMALY": 267.247, "EPHEMERIS_TYPE": 0, "CLASSIFICATION_TYPE": "U", "NORAD_CAT_ID": 66464, "ELEMENT_SET_NO": 999, "REV_AT_EPOCH": 534, "BSTAR": -0.003550524, "MEAN_MOTION_DOT": -0.00146225, "MEAN_MOTION_DDOT": 0}, "tle": {"line1": "1 66464U 25262J   25344.91670139 -.00146225  00000+0 -35505-2 0  9998", "line2": "2 66464  43.0006  81.9020 0002021 287.4251 267.2470 15.40783320  5348"}}, "geometry": {"type": "Point", "coordinates": [-145.32893022624094, 33.40982195240089]}}]}